{"type": "FeatureCollection", "features": [ {"type": "Feature", "properties": {"norad_id": 33492, "name": "GOSAT (IBUKI)", "group": "resource", "lat": -70.36223023072421, "lon": -97.38204209948377, "alt_km": 676.8048001740954, "timestamp": "2025-12-23T14:49:08.986190+00:00", "meta": {"OBJECT_NAME": "GOSAT (IBUKI)", "OBJECT_ID": "2009-002A", "EPOCH": "2025-12-23T05:29:32.997696", "MEAN_MOTION": 14.67544545, "ECCENTRICITY": 0.00010025, "INCLINATION": 98.0771, "RA_OF_ASC_NODE": 105.6864, "ARG_OF_PERICENTER": 103.8146, "MEAN_ANOMALY": 256.3171, "EPHEMERIS_TYPE": 0, "CLASSIFICATION_TYPE": "U", "NORAD_CAT_ID": 33492, "ELEMENT_SET_NO": 999, "REV_AT_EPOCH": 90565, "BSTAR": 0.00015015471, "MEAN_MOTION_DOT": 8.04e-06, "MEAN_MOTION_DDOT": 0}, "tle": {"line1": "1 33492U 09002A   25357.22885414  .00000804  00000+0  15015-3 0  9994", "line2": "2 33492  98.0771 105.6864 0001002 103.8146 256.3171 14.67544545905656"}}, "geometry": {"type": "Point", "coordinates": [-97.38204209948377, -70.36223023072421]}}, {"type": "Feature", "properties": {"norad_id": 35681, "name": "DEIMOS-1", "group": "resource", "lat": -77.03954698913857, "lon": -58.375014393791965, "alt_km": 654.2901942693798, "timestamp": "2025-12-23T14:49:08.986203+00:00", "meta": {"OBJECT_NAME": "DEIMOS-1", "OBJECT_ID": "2009-041A", "EPOCH": "2025-12-23T07:08:00.360096", "MEAN_MOTION": 14.74968378, "ECCENTRICITY": 0.00025389, "INCLINATION": 97.7151, "RA_OF_ASC_NODE": 157.4093, "ARG_OF_PERICENTER": 62.9326, "MEAN_ANOMALY": 297.2143, "EPHEMERIS_TYPE": 0, "CLASSIFICATION_TYPE": "U", "NORAD_CAT_ID": 35681, "ELEMENT_SET_NO": 999, "REV_AT_EPOCH": 88095, "BSTAR": 0.00014413303, "MEAN_MOTION_DOT": 9.21e-06, "MEAN_MOTION_DDOT": 0}, "tle": {"line1": "1 35681U 09041A   25357.29722639  .00000921  00000+0  14413-3 0  9996", "line2": "2 35681  97.7151 157.4093 0002538  62.9326 297.2143 14.74968378880955"}}, "geometry": {"type": "Point", "coordinates": [-58.375014393791965, -77.03954698913857]}}, {"type": "Feature", "properties": {"norad_id": 35682, "name": "DUBAISAT-1", "group": "resource", "lat": -1.2783576412735511, "lon": -52.04192258469862, "alt_km": 649.9820908232805, "timestamp": "2025-12-23T14:49:08.986216+00:00", "meta": {"OBJECT_NAME": "DUBAISAT-1", "OBJECT_ID": "2009-041B", "EPOCH": "2025-12-23T07:29:06.604800", "MEAN_MOTION": 14.74631421, "ECCENTRICITY": 0.00092661, "INCLINATION": 97.9797, "RA_OF_ASC_NODE": 127.8364, "ARG_OF_PERICENTER": 276.4831, "MEAN_ANOMALY": 83.5323, "EPHEMERIS_TYPE": 0, "CLASSIFICATION_TYPE": "U", "NORAD_CAT_ID": 35682, "ELEMENT_SET_NO": 999, "REV_AT_EPOCH": 87917, "BSTAR": 0.00018557327, "MEAN_MOTION_DOT": 1.188e-05, "MEAN_MOTION_DDOT": 0}, "tle": {"line1": "1 35682U 09041B   25357.31188200  .00001188  00000+0  18557-3 0  9999", "line2": "2 35682  97.9797 127.8364 0009266 276.4831  83.5323 14.74631421879178"}}, "geometry": {"type": "Point", "coordinates": [-52.04192258469862, -1.2783576412735511]}}, {"type": "Feature", "properties": {"norad_id": 35931, "name": "OCEANSAT-2", "group": "resource", "lat": -53.22653403589487, "lon": 8.268395706544629, "alt_km": 898.1478347595294, "timestamp": "2025-12-23T14:49:08.986228+00:00", "meta": {"OBJECT_NAME": "OCEANSAT-2", "OBJECT_ID": "2009-051A", "EPOCH": "2025-12-23T06:29:51.948960", "MEAN_MOTION": 13.99622881, "ECCENTRICITY": 0.00159472, "INCLINATION": 98.2217, "RA_OF_ASC_NODE": 356.8027, "ARG_OF_PERICENTER": 17.408, "MEAN_ANOMALY": 342.763, "EPHEMERIS_TYPE": 0, "CLASSIFICATION_TYPE": "U", "NORAD_CAT_ID": 35931, "ELEMENT_SET_NO": 999, "REV_AT_EPOCH": 85472, "BSTAR": -2.3938319e-05, "MEAN_MOTION_DOT": -7.2e-07, "MEAN_MOTION_DDOT": 0}, "tle": {"line1": "1 35931U 09051A   25357.27074015 -.00000072  00000+0 -23938-4 0  9993", "line2": "2 35931  98.2217 356.8027 0015947  17.4080 342.7630 13.99622881854729"}}, "geometry": {"type": "Point", "coordinates": [8.268395706544629, -53.22653403589487]}}, {"type": "Feature", "properties": {"norad_id": 35946, "name": "WORLDVIEW-2 (WV-2)", "group": "resource", "lat": 60.913693878203716, "lon": -95.89527228949517, "alt_km": 759.1270665493003, "timestamp": "2025-12-23T14:49:08.986241+00:00", "meta": {"OBJECT_NAME": "WORLDVIEW-2 (WV-2)", "OBJECT_ID": "2009-055A", "EPOCH": "2025-12-23T04:15:05.994144", "MEAN_MOTION": 14.37728531, "ECCENTRICITY": 0.00048029, "INCLINATION": 98.4775, "RA_OF_ASC_NODE": 68.1185, "ARG_OF_PERICENTER": 45.126, "MEAN_ANOMALY": 315.0316, "EPHEMERIS_TYPE": 0, "CLASSIFICATION_TYPE": "U", "NORAD_CAT_ID": 35946, "ELEMENT_SET_NO": 999, "REV_AT_EPOCH": 85035, "BSTAR": 7.44347e-05, "MEAN_MOTION_DOT": 1.8e-06, "MEAN_MOTION_DDOT": 0}, "tle": {"line1": "1 35946U 09055A   25357.17715271  .00000180  00000+0  74435-4 0  9994", "line2": "2 35946  98.4775  68.1185 0004802  45.1260 315.0316 14.37728531850351"}}, "geometry": {"type": "Point", "coordinates": [-95.89527228949517, 60.913693878203716]}}, {"type": "Feature", "properties": {"norad_id": 36036, "name": "SMOS", "group": "resource", "lat": -51.5280093700825, "lon": -8.261733606613518, "alt_km": 766.904852272929, "timestamp": "2025-12-23T14:49:08.986254+00:00", "meta": {"OBJECT_NAME": "SMOS", "OBJECT_ID": "2009-059A", "EPOCH": "2025-12-22T22:43:56.958528", "MEAN_MOTION": 14.39750085, "ECCENTRICITY": 0.00010622, "INCLINATION": 98.438, "RA_OF_ASC_NODE": 181.8445, "ARG_OF_PERICENTER": 83.5939, "MEAN_ANOMALY": 276.537, "EPHEMERIS_TYPE": 0, "CLASSIFICATION_TYPE": "U", "NORAD_CAT_ID": 36036, "ELEMENT_SET_NO": 999, "REV_AT_EPOCH": 84809, "BSTAR": 0.00013392467, "MEAN_MOTION_DOT": 3.76e-06, "MEAN_MOTION_DDOT": 0}, "tle": {"line1": "1 36036U 09059A   25356.94718702  .00000376  00000+0  13392-3 0  9996", "line2": "2 36036  98.4380 181.8445 0001062  83.5939 276.5370 14.39750085848090"}}, "geometry": {"type": "Point", "coordinates": [-8.261733606613518, -51.5280093700825]}}, {"type": "Feature", "properties": {"norad_id": 36110, "name": "YAOGAN-7", "group": "resource", "lat": 75.20220716950345, "lon": 91.63541951772795, "alt_km": 642.19233089706, "timestamp": "2025-12-23T14:49:08.986266+00:00", "meta": {"OBJECT_NAME": "YAOGAN-7", "OBJECT_ID": "2009-069A", "EPOCH": "2025-12-23T04:36:17.801280", "MEAN_MOTION": 14.77746979, "ECCENTRICITY": 0.00234164, "INCLINATION": 98.0295, "RA_OF_ASC_NODE": 238.9113, "ARG_OF_PERICENTER": 245.627, "MEAN_ANOMALY": 114.2496, "EPHEMERIS_TYPE": 0, "CLASSIFICATION_TYPE": "U", "NORAD_CAT_ID": 36110, "ELEMENT_SET_NO": 999, "REV_AT_EPOCH": 86363, "BSTAR": 9.029718e-05, "MEAN_MOTION_DOT": 5.97e-06, "MEAN_MOTION_DDOT": 0}, "tle": {"line1": "1 36110U 09069A   25357.19187270  .00000597  00000+0  90297-4 0  9993", "line2": "2 36110  98.0295 238.9113 0023416 245.6270 114.2496 14.77746979863639"}}, "geometry": {"type": "Point", "coordinates": [91.63541951772795, 75.20220716950345]}}, {"type": "Feature", "properties": {"norad_id": 36605, "name": "TANDEM-X", "group": "resource", "lat": 12.649035707841527, "lon": -175.47981538754985, "alt_km": 509.71803673293016, "timestamp": "2025-12-23T14:49:08.986279+00:00", "meta": {"OBJECT_NAME": "TANDEM-X", "OBJECT_ID": "2010-030A", "EPOCH": "2025-12-22T14:22:24.829536", "MEAN_MOTION": 15.19158129, "ECCENTRICITY": 0.0001799, "INCLINATION": 97.4444, "RA_OF_ASC_NODE": 1.8349, "ARG_OF_PERICENTER": 78.6886, "MEAN_ANOMALY": 281.4551, "EPHEMERIS_TYPE": 0, "CLASSIFICATION_TYPE": "U", "NORAD_CAT_ID": 36605, "ELEMENT_SET_NO": 999, "REV_AT_EPOCH": 85983, "BSTAR": 3.9682032e-05, "MEAN_MOTION_DOT": 7.67e-06, "MEAN_MOTION_DDOT": 0}, "tle": {"line1": "1 36605U 10030A   25356.59889849  .00000767  00000+0  39682-4 0  9996", "line2": "2 36605  97.4444   1.8349 0001799  78.6886 281.4551 15.19158129859839"}}, "geometry": {"type": "Point", "coordinates": [-175.47981538754985, 12.649035707841527]}}, {"type": "Feature", "properties": {"norad_id": 36795, "name": "CARTOSAT-2B", "group": "resource", "lat": 67.30436703444222, "lon": 27.203000672411463, "alt_km": 618.640925941826, "timestamp": "2025-12-23T14:49:08.986290+00:00", "meta": {"OBJECT_NAME": "CARTOSAT-2B", "OBJECT_ID": "2010-035A", "EPOCH": "2025-12-23T08:00:53.112384", "MEAN_MOTION": 14.78739743, "ECCENTRICITY": 0.00126867, "INCLINATION": 97.7837, "RA_OF_ASC_NODE": 46.0195, "ARG_OF_PERICENTER": 45.3471, "MEAN_ANOMALY": 314.8773, "EPHEMERIS_TYPE": 0, "CLASSIFICATION_TYPE": "U", "NORAD_CAT_ID": 36795, "ELEMENT_SET_NO": 999, "REV_AT_EPOCH": 83386, "BSTAR": 0.00010458297, "MEAN_MOTION_DOT": 7.19e-06, "MEAN_MOTION_DDOT": 0}, "tle": {"line1": "1 36795U 10035A   25357.33394806  .00000719  00000+0  10458-3 0  9994", "line2": "2 36795  97.7837  46.0195 0012686  45.3471 314.8773 14.78739743833869"}}, "geometry": {"type": "Point", "coordinates": [27.203000672411463, 67.30436703444222]}}, {"type": "Feature", "properties": {"norad_id": 36834, "name": "YAOGAN-10", "group": "resource", "lat": 19.091864944997305, "lon": 14.596841181925296, "alt_km": 614.4586437478611, "timestamp": "2025-12-23T14:49:08.986302+00:00", "meta": {"OBJECT_NAME": "YAOGAN-10", "OBJECT_ID": "2010-038A", "EPOCH": "2025-12-23T07:13:16.395744", "MEAN_MOTION": 14.84644367, "ECCENTRICITY": 0.00013423, "INCLINATION": 97.9127, "RA_OF_ASC_NODE": 17.0419, "ARG_OF_PERICENTER": 79.421, "MEAN_ANOMALY": 48.9831, "EPHEMERIS_TYPE": 0, "CLASSIFICATION_TYPE": "U", "NORAD_CAT_ID": 36834, "ELEMENT_SET_NO": 999, "REV_AT_EPOCH": 83110, "BSTAR": 0.00023974918, "MEAN_MOTION_DOT": 1.973e-05, "MEAN_MOTION_DDOT": 0}, "tle": {"line1": "1 36834U 10038A   25357.30088421  .00001973  00000+0  23975-3 0  9992", "line2": "2 36834  97.9127  17.0419 0001342  79.4210  48.9831 14.84644367831109"}}, "geometry": {"type": "Point", "coordinates": [14.596841181925296, 19.091864944997305]}}]}